VCC C                   
1 44430U 98067QQ  20097.12072250  .00013561  00000-0  18754-3 0  9996
2 44430  51.6408 336.3909 0003061  87.0624 273.0718 15.57448773 42084
VCC B                   
1 44431U 98067QR  20096.96418506  .00009605  00000-0  14237-3 0  9992
2 44431  51.6415 338.3423 0003437  78.8392 281.2986 15.55964355 43157
ATL-1                   
1 44830U 19084G   20097.29032001  .00040825  00000-0  30553-3 0  9994
2 44830  96.9872 326.0539 0033727 151.3710 208.9415 15.71770685 19095
SMOG-P                  
1 44832U 19084J   20096.88456030  .00045731  00000-0  33429-3 0  9998
2 44832  96.9882 325.7120 0032975 151.8174 208.4885 15.72337771 19039
DUCHIFAT-3              
1 44854U 19089C   20097.55657476  .00000395  00000-0  38374-4 0  9991
2 44854  36.9660 163.2325 0007689 209.3642 150.6680 14.99014508 17505
ORBITAL FACTORY 2 (OF-2)
1 45113U 19071C   20097.52580160  .00001737  00000-0  65087-4 0  9995
2 45113  51.6442 350.9426 0013408 155.7980 204.3635 15.33071526 10094
